[{"OBJECT_NAME":"STARLINK-2731","OBJECT_ID":"2021-044P","EPOCH":"2026-03-09T12:02:24.586944","MEAN_MOTION":15.30216557,"ECCENTRICITY":0.0001669,"INCLINATION":53.1608,"RA_OF_ASC_NODE":114.7581,"ARG_OF_PERICENTER":81.5472,"MEAN_ANOMALY":278.5718,"EPHEMERIS_TYPE":0,"CLASSIFICATION_TYPE":"U","NORAD_CAT_ID":48651,"ELEMENT_SET_NO":999,"REV_AT_EPOCH":26379,"BSTAR":0.00028894491,"MEAN_MOTION_DOT":8.212e-5,"MEAN_MOTION_DDOT":0},{"OBJECT_NAME":"OBJECT F","OBJECT_ID":"2023-072F","EPOCH":"2026-03-09T23:31:37.259904","MEAN_MOTION":15.29470958,"ECCENTRICITY":0.00062878,"INCLINATION":97.5173,"RA_OF_ASC_NODE":265.798,"ARG_OF_PERICENTER":19.0017,"MEAN_ANOMALY":341.1456,"EPHEMERIS_TYPE":0,"CLASSIFICATION_TYPE":"U","NORAD_CAT_ID":56748,"ELEMENT_SET_NO":999,"REV_AT_EPOCH":15460,"BSTAR":0.00043416252,"MEAN_MOTION_DOT":0.00012341,"MEAN_MOTION_DDOT":0}]
